{"type": "FeatureCollection", "features": [ {"type": "Feature", "properties": {"norad_id": 33153, "name": "INTELSAT 25 (IS-25)", "group": "intelsat", "lat": -2.195205674954486, "lon": 0.8680239120397375, "alt_km": 35787.77406791725, "timestamp": "2025-12-10T20:49:52.228504+00:00", "meta": {"OBJECT_NAME": "INTELSAT 25 (IS-25)", "OBJECT_ID": "2008-034A", "EPOCH": "2025-12-10T14:30:12.160224", "MEAN_MOTION": 1.00270156, "ECCENTRICITY": 0.00053568, "INCLINATION": 2.2225, "RA_OF_ASC_NODE": 82.6718, "ARG_OF_PERICENTER": 185.8898, "MEAN_ANOMALY": 357.0641, "EPHEMERIS_TYPE": 0, "CLASSIFICATION_TYPE": "U", "NORAD_CAT_ID": 33153, "ELEMENT_SET_NO": 999, "REV_AT_EPOCH": 6380, "BSTAR": 0, "MEAN_MOTION_DOT": -2.2e-06, "MEAN_MOTION_DDOT": 0}, "tle": {"line1": "1 33153U 08034A   25344.60430741 -.00000220  00000+0  00000+0 0  9996", "line2": "2 33153   2.2225  82.6718 0005356 185.8898 357.0641  1.00270156 63803"}}, "geometry": {"type": "Point", "coordinates": [0.8680239120397375, -2.195205674954486]}}, {"type": "Feature", "properties": {"norad_id": 33376, "name": "GALAXY 19 (G-19)", "group": "intelsat", "lat": -0.02294977515248985, "lon": -64.67717237812568, "alt_km": 35776.72004647872, "timestamp": "2025-12-10T20:49:52.228516+00:00", "meta": {"OBJECT_NAME": "GALAXY 19 (G-19)", "OBJECT_ID": "2008-045A", "EPOCH": "2025-12-10T07:35:38.511744", "MEAN_MOTION": 1.00271524, "ECCENTRICITY": 0.00026896, "INCLINATION": 0.016, "RA_OF_ASC_NODE": 335.7493, "ARG_OF_PERICENTER": 285.7488, "MEAN_ANOMALY": 194.7107, "EPHEMERIS_TYPE": 0, "CLASSIFICATION_TYPE": "U", "NORAD_CAT_ID": 33376, "ELEMENT_SET_NO": 999, "REV_AT_EPOCH": 6301, "BSTAR": 0, "MEAN_MOTION_DOT": -1.36e-06, "MEAN_MOTION_DDOT": 0}, "tle": {"line1": "1 33376U 08045A   25344.31641796 -.00000136  00000+0  00000+0 0  9993", "line2": "2 33376   0.0160 335.7493 0002689 285.7488 194.7107  1.00271524 63013"}}, "geometry": {"type": "Point", "coordinates": [-64.67717237812568, -0.02294977515248985]}}, {"type": "Feature", "properties": {"norad_id": 35493, "name": "FM-5", "group": "intelsat", "lat": -0.0017209404079231321, "lon": -53.83603213531231, "alt_km": 35788.058850336005, "timestamp": "2025-12-10T20:49:52.228527+00:00", "meta": {"OBJECT_NAME": "FM-5", "OBJECT_ID": "2009-034A", "EPOCH": "2025-12-10T07:19:38.654400", "MEAN_MOTION": 1.00270816, "ECCENTRICITY": 5.981e-05, "INCLINATION": 0.0181, "RA_OF_ASC_NODE": 290.4864, "ARG_OF_PERICENTER": 244.036, "MEAN_ANOMALY": 288.5308, "EPHEMERIS_TYPE": 0, "CLASSIFICATION_TYPE": "U", "NORAD_CAT_ID": 35493, "ELEMENT_SET_NO": 999, "REV_AT_EPOCH": 4475, "BSTAR": 0, "MEAN_MOTION_DOT": -1.97e-06, "MEAN_MOTION_DDOT": 0}, "tle": {"line1": "1 35493U 09034A   25344.30530850 -.00000197  00000+0  00000+0 0  9998", "line2": "2 35493   0.0181 290.4864 0000598 244.0360 288.5308  1.00270816 44759"}}, "geometry": {"type": "Point", "coordinates": [-53.83603213531231, -0.0017209404079231321]}}, {"type": "Feature", "properties": {"norad_id": 36097, "name": "INTELSAT 14 (IS-14)", "group": "intelsat", "lat": -0.002650578633268534, "lon": -12.668956151822092, "alt_km": 35784.674223545655, "timestamp": "2025-12-10T20:49:52.228540+00:00", "meta": {"OBJECT_NAME": "INTELSAT 14 (IS-14)", "OBJECT_ID": "2009-064A", "EPOCH": "2025-12-10T03:03:23.389920", "MEAN_MOTION": 1.00270224, "ECCENTRICITY": 0.00026475, "INCLINATION": 0.009, "RA_OF_ASC_NODE": 2.4747, "ARG_OF_PERICENTER": 264.7891, "MEAN_ANOMALY": 172.6949, "EPHEMERIS_TYPE": 0, "CLASSIFICATION_TYPE": "U", "NORAD_CAT_ID": 36097, "ELEMENT_SET_NO": 999, "REV_AT_EPOCH": 5870, "BSTAR": 0, "MEAN_MOTION_DOT": -2.7e-06, "MEAN_MOTION_DDOT": 0}, "tle": {"line1": "1 36097U 09064A   25344.12735405 -.00000270  00000+0  00000+0 0  9997", "line2": "2 36097   0.0090   2.4747 0002647 264.7891 172.6949  1.00270224 58702"}}, "geometry": {"type": "Point", "coordinates": [-12.668956151822092, -0.002650578633268534]}}, {"type": "Feature", "properties": {"norad_id": 36106, "name": "INTELSAT 15 (IS-15)", "group": "intelsat", "lat": 0.004951949890090546, "lon": 117.43260400931307, "alt_km": 35795.24201503987, "timestamp": "2025-12-10T20:49:52.228552+00:00", "meta": {"OBJECT_NAME": "INTELSAT 15 (IS-15)", "OBJECT_ID": "2009-067A", "EPOCH": "2025-12-10T14:22:03.878400", "MEAN_MOTION": 1.00270741, "ECCENTRICITY": 0.00024271, "INCLINATION": 0.0254, "RA_OF_ASC_NODE": 288.1455, "ARG_OF_PERICENTER": 338.8369, "MEAN_ANOMALY": 113.252, "EPHEMERIS_TYPE": 0, "CLASSIFICATION_TYPE": "U", "NORAD_CAT_ID": 36106, "ELEMENT_SET_NO": 999, "REV_AT_EPOCH": 3933, "BSTAR": 0, "MEAN_MOTION_DOT": -1.81e-06, "MEAN_MOTION_DDOT": 0}, "tle": {"line1": "1 36106U 09067A   25344.59865600 -.00000181  00000+0  00000+0 0  9994", "line2": "2 36106   0.0254 288.1455 0002427 338.8369 113.2520  1.00270741 39331"}}, "geometry": {"type": "Point", "coordinates": [117.43260400931307, 0.004951949890090546]}}, {"type": "Feature", "properties": {"norad_id": 36131, "name": "DIRECTV 12", "group": "intelsat", "lat": -0.006123253323004496, "lon": -70.42183224604467, "alt_km": 35785.02147443504, "timestamp": "2025-12-10T20:49:52.228563+00:00", "meta": {"OBJECT_NAME": "DIRECTV 12", "OBJECT_ID": "2009-075A", "EPOCH": "2025-12-10T08:12:19.207872", "MEAN_MOTION": 1.00271691, "ECCENTRICITY": 4.696e-05, "INCLINATION": 0.0407, "RA_OF_ASC_NODE": 142.1952, "ARG_OF_PERICENTER": 203.616, "MEAN_ANOMALY": 113.8688, "EPHEMERIS_TYPE": 0, "CLASSIFICATION_TYPE": "U", "NORAD_CAT_ID": 36131, "ELEMENT_SET_NO": 999, "REV_AT_EPOCH": 4466, "BSTAR": 0, "MEAN_MOTION_DOT": -1e-06, "MEAN_MOTION_DDOT": 0}, "tle": {"line1": "1 36131U 09075A   25344.34188898 -.00000100  00000+0  00000+0 0  9992", "line2": "2 36131   0.0407 142.1952 0000469 203.6160 113.8688  1.00271691 44660"}}, "geometry": {"type": "Point", "coordinates": [-70.42183224604467, -0.006123253323004496]}}, {"type": "Feature", "properties": {"norad_id": 36397, "name": "INTELSAT 16 (IS-16)", "group": "intelsat", "lat": -0.004010540254233608, "lon": -43.886166142157656, "alt_km": 35780.77808711193, "timestamp": "2025-12-10T20:49:52.228575+00:00", "meta": {"OBJECT_NAME": "INTELSAT 16 (IS-16)", "OBJECT_ID": "2010-006A", "EPOCH": "2025-12-10T04:15:38.659392", "MEAN_MOTION": 1.00270158, "ECCENTRICITY": 0.00022535, "INCLINATION": 0.013, "RA_OF_ASC_NODE": 313.914, "ARG_OF_PERICENTER": 309.8505, "MEAN_ANOMALY": 163.0994, "EPHEMERIS_TYPE": 0, "CLASSIFICATION_TYPE": "U", "NORAD_CAT_ID": 36397, "ELEMENT_SET_NO": 999, "REV_AT_EPOCH": 5775, "BSTAR": 0, "MEAN_MOTION_DOT": -2.41e-06, "MEAN_MOTION_DDOT": 0}, "tle": {"line1": "1 36397U 10006A   25344.17753078 -.00000241  00000+0  00000+0 0  9997", "line2": "2 36397   0.0130 313.9140 0002253 309.8505 163.0994  1.00270158 57757"}}, "geometry": {"type": "Point", "coordinates": [-43.886166142157656, -0.004010540254233608]}}, {"type": "Feature", "properties": {"norad_id": 37185, "name": "XM-5", "group": "intelsat", "lat": -0.010282629384008495, "lon": -82.88842335218193, "alt_km": 35790.58899928525, "timestamp": "2025-12-10T20:49:52.228587+00:00", "meta": {"OBJECT_NAME": "XM-5", "OBJECT_ID": "2010-053A", "EPOCH": "2025-12-10T13:37:54.526944", "MEAN_MOTION": 1.002694, "ECCENTRICITY": 0.00014943, "INCLINATION": 0.0608, "RA_OF_ASC_NODE": 272.7787, "ARG_OF_PERICENTER": 236.7072, "MEAN_ANOMALY": 19.3322, "EPHEMERIS_TYPE": 0, "CLASSIFICATION_TYPE": "U", "NORAD_CAT_ID": 37185, "ELEMENT_SET_NO": 999, "REV_AT_EPOCH": 5559, "BSTAR": 0, "MEAN_MOTION_DOT": -1.9e-07, "MEAN_MOTION_DDOT": 0}, "tle": {"line1": "1 37185U 10053A   25344.56799221 -.00000019  00000+0  00000+0 0  9991", "line2": "2 37185   0.0608 272.7787 0001494 236.7072  19.3322  1.00269400 55591"}}, "geometry": {"type": "Point", "coordinates": [-82.88842335218193, -0.010282629384008495]}}, {"type": "Feature", "properties": {"norad_id": 37238, "name": "INTELSAT 17 (IS-17)", "group": "intelsat", "lat": 0.013635969076365445, "lon": 98.3110973352828, "alt_km": 35795.835329793044, "timestamp": "2025-12-10T20:49:52.228598+00:00", "meta": {"OBJECT_NAME": "INTELSAT 17 (IS-17)", "OBJECT_ID": "2010-065B", "EPOCH": "2025-12-10T08:41:38.596992", "MEAN_MOTION": 1.00272645, "ECCENTRICITY": 0.00024677, "INCLINATION": 0.013, "RA_OF_ASC_NODE": 291.2623, "ARG_OF_PERICENTER": 330.6485, "MEAN_ANOMALY": 13.8548, "EPHEMERIS_TYPE": 0, "CLASSIFICATION_TYPE": "U", "NORAD_CAT_ID": 37238, "ELEMENT_SET_NO": 999, "REV_AT_EPOCH": 5135, "BSTAR": 0, "MEAN_MOTION_DOT": 2e-08, "MEAN_MOTION_DDOT": 0}, "tle": {"line1": "1 37238U 10065B   25344.36225228  .00000002  00000+0  00000+0 0  9993", "line2": "2 37238   0.0130 291.2623 0002467 330.6485  13.8548  1.00272645 51352"}}, "geometry": {"type": "Point", "coordinates": [98.3110973352828, 0.013635969076365445]}}, {"type": "Feature", "properties": {"norad_id": 37392, "name": "INTELSAT 28 (IS-28)", "group": "intelsat", "lat": -1.3077940142353792, "lon": 0.6527662491158499, "alt_km": 35788.13808045192, "timestamp": "2025-12-10T20:49:52.228610+00:00", "meta": {"OBJECT_NAME": "INTELSAT 28 (IS-28)", "OBJECT_ID": "2011-016A", "EPOCH": "2025-12-10T03:07:08.031648", "MEAN_MOTION": 1.00272193, "ECCENTRICITY": 0.00039485, "INCLINATION": 1.3181, "RA_OF_ASC_NODE": 85.0885, "ARG_OF_PERICENTER": 178.8995, "MEAN_ANOMALY": 190.2073, "EPHEMERIS_TYPE": 0, "CLASSIFICATION_TYPE": "U", "NORAD_CAT_ID": 37392, "ELEMENT_SET_NO": 999, "REV_AT_EPOCH": 5139, "BSTAR": 0, "MEAN_MOTION_DOT": -2.21e-06, "MEAN_MOTION_DDOT": 0}, "tle": {"line1": "1 37392U 11016A   25344.12995407 -.00000221  00000+0  00000+0 0  9992", "line2": "2 37392   1.3181  85.0885 0003948 178.8995 190.2073  1.00272193 51390"}}, "geometry": {"type": "Point", "coordinates": [0.6527662491158499, -1.3077940142353792]}}]}